ARIANE 40 R/B           
1 20443U 90005H   26058.38983728  .00000276  00000+0  10122-3 0  9999
2 20443  98.3107 119.3571 0009223 230.8955 129.1414 14.39862586891325
DELTA 2 R/B(1)          
1 20453U 90008B   26058.80989950  .00069756  00000+0  85931-3 0  9991
2 20453  35.6027 239.6221 0087501 166.9796 193.3223 15.54447812924592
COSMOS 2058             
1 20465U 90010A   26058.71643343  .00004086  00000+0  24136-3 0  9995
2 20465  82.4665  57.2536 0010072  16.6236 343.5322 15.11215667940732
SL-14 R/B               
1 20466U 90010B   26058.09775417  .00000403  00000+0  45910-4 0  9998
2 20466  82.4996 277.3404 0019252 339.1012  20.9414 14.83558405926913
SL-14 R/B               
1 20511U 90018B   26058.44295208  .00000545  00000+0  65354-4 0  9992
2 20511  82.5187 232.6683 0017482 123.0886 237.2010 14.82131551921066
HST                     
1 20580U 90037B   26058.43688826  .00007990  00000+0  26528-3 0  9990
2 20580  28.4696 109.9319 0001432  20.1888 339.8763 15.29295817771745
SL-16 R/B               
1 20625U 90046B   26058.44689063 -.00000087  00000+0 -20117-4 0  9996
2 20625  71.0012 319.4260 0015960 313.5187  46.4608 14.15015354846940
COSMOS 2084             
1 20663U 90055A   26058.82596987  .00002973  00000+0  21852-3 0  9992
2 20663  62.7912   9.2163 0018626 187.6778 172.4040 15.05577114934835
SL-6 R/B(2)             
1 20666U 90055D   26058.79517348  .00001935  00000+0  15495-3 0  9998
2 20666  62.7825 287.4986 0023205 344.5407  15.4981 15.03539722936705
SL-8 R/B                
1 20775U 90078B   26058.83092840  .00015337  00000+0  45009-3 0  9999
2 20775  82.8998 260.1763 0364564  47.0845 316.0359 14.88684110807832
SL-8 R/B                
1 21088U 91006B   26058.82918438  .00000042  00000+0  26460-4 0  9996
2 21088  82.9462 177.3758 0023560  64.8645  49.7833 13.77493038762711
OKEAN-3                 
1 21397U 91039A   26058.83739879  .00003208  00000+0  22542-3 0  9999
2 21397  82.5200 346.3856 0014587  12.2507 347.9071 15.04722336863559
COSMOS 2151             
1 21422U 91042A   26058.81103890  .00001525  00000+0  12009-3 0  9995
2 21422  82.4934  93.2077 0014145  93.1175 267.1667 15.00059556861716
SL-14 R/B               
1 21423U 91042B   26058.83141188  .00000497  00000+0  59913-4 0  9993
2 21423  82.4905 229.4276 0015549 273.9654  85.9783 14.81817475851611
ERS-1                   
1 21574U 91050A   26058.47918206  .00000345  00000+0  12509-3 0  9993
2 21574  98.7889  76.4571 0031115 231.2873 128.5531 14.39440039814260
ARIANE 40 R/B           
1 21610U 91050F   26058.41572969  .00000310  00000+0  10533-3 0  9997
2 21610  98.2035 111.0368 0004391 103.3751 256.7929 14.42884915817514
INTERCOSMOS 25          
1 21819U 91086A   26058.83345350  .00001557  00000+0  29893-3 0  9998
2 21819  82.6069 315.9646 1487090 138.1660 234.3275 12.11967057495498
SL-8 R/B                
1 21876U 92008B   26058.54192485  .00000012  00000+0 -37574-5 0  9996
2 21876  82.9231 275.3289 0035039 161.0520 262.5473 13.75969909708026
SL-8 R/B                
1 21938U 92020B   26058.57129560  .00000069  00000+0  56025-4 0  9998
2 21938  82.9343 161.2718 0028088 328.1770  42.6183 13.75548137699747
USA 81                  
1 21949U 92023A   26058.45956416  .00000176  00000+0  57734-4 0  9995
2 21949  85.0105 137.3417 0002711  86.2863 273.8639 14.32363966 93324
COSMOS 2219             
1 22219U 92076A   26058.68839729  .00000366  00000+0  21674-3 0  9990
2 22219  71.0606  38.9743 0019475 220.3941 139.5736 14.14086095716960
SL-16 R/B               
1 22220U 92076B   26058.66159667  .00000267  00000+0  15710-3 0  9990
2 22220  70.9991 209.4959 0010815 114.7947 256.2709 14.16858217720419
COSMOS 2221             
1 22236U 92080A   26058.60554392  .00001750  00000+0  15292-3 0  9993
2 22236  82.5025 288.7415 0013165 222.8463 137.1734 14.96155641779288
SL-16 R/B               
1 22285U 92093B   26058.63367714  .00000014  00000+0  31664-4 0  9998
2 22285  71.0232  25.3744 0006114 304.4445  55.6100 14.15449703711731
COSMOS 2228             
1 22286U 92094A   26058.76221977  .00001872  00000+0  15946-3 0  9991
2 22286  82.5146 246.8176 0017451 339.8503  20.2029 14.97132296774570
SL-16 R/B               
1 22566U 93016B   26058.81445081  .00000302  00000+0  17925-3 0  9993
2 22566  71.0050 235.9227 0011114 328.0091  32.0356 14.15302398700773
COSMOS 2242             
1 22626U 93024A   26058.80703875  .00001892  00000+0  16395-3 0  9991
2 22626  82.5163 276.1713 0015949 344.0426  16.0291 14.96501941778914
SL-16 R/B               
1 22803U 93059B   26058.66611516  .00000243  00000+0  14395-3 0  9997
2 22803  70.9910  32.2628 0018925 230.4406 129.5046 14.17230594678116
ARIANE 40 R/B           
1 22830U 93061H   26058.43347204  .00000217  00000+0  95176-4 0  9993
2 22830  98.4939 127.5225 0009767 318.9748  41.0701 14.32854737692635
COSMOS 2278             
1 23087U 94023A   26058.83783923  .00000384  00000+0  22512-3 0  9991
2 23087  71.0534 195.7070 0007498  33.2900 326.8693 14.14372436643416
SL-16 R/B               
1 23088U 94023B   26058.53528867  .00000019  00000+0  34551-4 0  9995
2 23088  70.9988  92.2142 0005420 295.4375  64.6186 14.15013257644655
SL-16 R/B               
1 23343U 94074B   26058.52555650  .00000513  00000+0  75429-4 0  9992
2 23343  97.7123  89.7543 0005181 250.1156 239.4709 14.79394097685744
SL-16 R/B               
1 23405U 94077B   26058.30886075 -.00000183  00000+0 -68990-4 0  9998
2 23405  70.9848  14.3262 0003622 224.9670 135.1160 14.15563623614760
ARIANE 40+ R/B          
1 23561U 95021B   26058.45218098  .00000304  00000+0  11099-3 0  9991
2 23561  98.4519 130.0724 0007185 163.8752 206.7087 14.39763900617775
SL-16 R/B               
1 23705U 95058B   26058.81001299 -.00000195  00000+0 -75675-4 0  9995
2 23705  71.0208 200.9953 0011104 143.2313 216.9574 14.15493135566455
SL-16 R/B               
1 24298U 96051B   26058.82609080  .00000082  00000+0  70833-4 0  9994
2 24298  70.7590 196.1147 0015966 162.4066 197.7610 14.12412723520258
ORBVIEW 2 (SEASTAR)     
1 24883U 97037A   26058.45046545  .00000310  00000+0  12399-3 0  9995
2 24883  98.8550 222.4921 0003218  92.7526 267.4027 14.35485536507003
SL-16 R/B               
1 25400U 98043G   26058.83855920  .00000065  00000+0  46148-4 0  9993
2 25400  98.8237  12.1333 0010663  47.3255 312.8821 14.26047176437585
SL-16 R/B               
1 25407U 98045B   26058.82580881 -.00000225  00000+0 -89644-4 0  9990
2 25407  71.0109 202.3156 0006194  23.5550 336.5856 14.16190560425704
ISS (ZARYA)             
1 25544U 98067A   26058.50986825  .00012441  00000+0  23882-3 0  9991
2 25544  51.6324 122.6808 0008329 139.0697 221.0918 15.48339371554750
CZ-4B R/B               
1 25732U 99025C   26058.35544080  .00000061  00000+0  50406-4 0  9999
2 25732  98.6649 102.8808 0037316  16.4084 354.0623 14.18263022386709
OKEAN-O                 
1 25860U 99039A   26058.17493092  .00000703  00000+0  99052-4 0  9995
2 25860  97.9467 118.1723 0001573  73.6255 286.5130 14.80316109432830
SL-16 R/B               
1 25861U 99039B   26058.43483367  .00000594  00000+0  82139-4 0  9995
2 25861  97.9989 117.5457 0013479 292.8263  67.1526 14.81714936435341
DELTA 2 R/B             
1 25876U 99041E   26058.53073597  .00001656  00000+0  30416-3 0  9995
2 25876  51.7660 341.8534 0502270 318.4368  37.9378 14.11797727361599
HELIOS 1B               
1 25977U 99064A   26058.28855022  .00001833  00000+0  20790-3 0  9996
2 25977  98.1707 320.2257 0002463  89.2330 270.9168 14.87647842683714
TERRA                   
1 25994U 99068A   26058.79382594  .00000453  00000+0  10150-3 0  9990
2 25994  97.9615 112.6056 0002020 176.4219 292.9110 14.61002340393632
SL-16 R/B               
1 26070U 00006B   26058.48541789  .00000301  00000+0  17727-3 0  9998
2 26070  71.0016 119.2949 0017435 204.1007 155.9302 14.15821850347117
TITAN 4B R/B            
1 26474U 00047B   26058.75747866  .00003792  00000+0  24080-3 0  9992
2 26474  67.9883  68.4380 0037798  47.3212 313.1110 15.09451429391416
ENVISAT                 
1 27386U 02009A   26058.86944131  .00000128  00000+0  55241-4 0  9995
2 27386  98.3709  12.7016 0001368  85.1746 293.5287 14.39032627257760
IDEFIX & ARIANE 42P R/B 
1 27422U 02021B   26058.84688090  .00000268  00000+0  11860-3 0  9990
2 27422  98.5859 357.5714 0011034 212.3468 147.7040 14.31017833242619
AQUA                    
1 27424U 02022A   26058.89068323  .00001080  00000+0  22544-3 0  9993
2 27424  98.4155  26.0786 0000793  51.2384 334.5155 14.61948355267304
CZ-4B R/B               
1 27432U 02024C   26058.38203409  .00000043  00000+0  44911-4 0  9995
2 27432  98.8863 111.8395 0050929  53.1753 317.7528 14.14545605227783
MIDORI II (ADEOS-II)    
1 27597U 02056A   26058.58298058  .00000281  00000+0  12831-3 0  9997
2 27597  98.7749  16.9921 0001924  57.3981 302.7386 14.29275875208855
H-2A R/B                
1 27601U 02056E   26058.86609036  .00000272  00000+0  10985-3 0  9994
2 27601  98.3183  19.6068 0069881 189.9328 224.7028 14.33752987212708
CZ-4B R/B               
1 28059U 03049C   26058.82476222  .00000440  00000+0  11270-3 0  9995
2 28059  98.6869  53.3434 0046999 261.6904  97.8961 14.55008480185165
CZ-2C R/B               
1 28222U 04012C   26058.81908233  .00049097  00000+0  53353-3 0  9998
2 28222  97.7260 123.1855 0013717 349.7928  10.3049 15.63222378202735
SL-16 R/B               
1 28353U 04021B   26058.84011651  .00000003  00000+0  26566-4 0  9996
2 28353  70.9990 253.1638 0003522  30.9853 329.1476 14.14599677121442
CZ-4B R/B               
1 28415U 04035C   26058.83056334  .00008675  00000+0  30730-3 0  9996
2 28415  97.3527  93.1930 0032216   7.2350 352.9348 15.28854207178407
CZ-2C R/B               
1 28480U 04046B   26058.38842993  .00000123  00000+0  60987-4 0  9992
2 28480  98.1988 334.0129 0139253 184.8443 175.1401 14.26988213107038
